{
  "norad_id": 68348,
  "name": "STARLINK-37182",
  "history": [
    {
      "epoch": "2026-03-31T16:00:01.999584Z",
      "apogee_km": 320.8823757779728,
      "perigee_km": 319.85080622495843,
      "latitude_deg": -39.1962701976664,
      "longitude_deg": 146.08696760692675,
      "height_km": 333.46589934398224,
      "semi_major_axis_km": 6698.503591001465,
      "eccentricity": 7.7e-05,
      "inclination_deg": 53.1593,
      "raan_deg": 252.5461,
      "arg_perigee_deg": 69.8164,
      "mean_anomaly_deg": 238.3665,
      "mean_motion_rev_day": 15.83565641
    }
  ]
}